IRIDIUM 166             
1 43570U 18061B   25298.66349994  .00000192  00000+0  61411-4 0  9999
2 43570  86.3992 154.7884 0001850  86.0449 274.0958 14.34218326379783
IRIDIUM 158             
1 43571U 18061C   25298.84109056  .00000268  00000+0  88573-4 0  9995
2 43571  86.3992 154.7242 0002246  80.1842 279.9607 14.34213051379778
IRIDIUM 165             
1 43572U 18061D   25298.86646404 -.00000065  00000+0 -30435-4 0  9992
2 43572  86.3998 154.7552 0001802  87.3380 272.8022 14.34216910379806
IRIDIUM 155             
1 43573U 18061E   25298.68887089  .00000265  00000+0  87422-4 0  9997
2 43573  86.3989 154.7104 0002041  79.8740 280.2686 14.34218578379746
IRIDIUM 154             
1 43574U 18061F   25298.66984334  .00000339  00000+0  11402-3 0  9993
2 43574  86.3989 154.8399 0002164  86.3140 273.8304 14.34219694379797
IRIDIUM 163             
1 43575U 18061G   25298.86012616  .00000332  00000+0  11133-3 0  9995
2 43575  86.3990 154.6835 0002255  84.0920 276.0533 14.34222710379797
IRIDIUM 156             
1 43576U 18061H   25298.83475023  .00000148  00000+0  45720-4 0  9993
2 43576  86.3993 154.7010 0001912  79.1181 281.0230 14.34218080379784
IRIDIUM 164             
1 43577U 18061J   25298.67618551  .00000118  00000+0  35028-4 0  9998
2 43577  86.3992 154.8038 0001876  89.4185 270.7226 14.34218019379807
